<?xml version="1.0" encoding="UTF-8"?>
<ndm xmlns:xsi="http://www.w3.org/2001/XMLSchema-instance" xsi:noNamespaceSchemaLocation="https://sanaregistry.org/r/ndmxml_unqualified/ndmxml-2.0.0-master-2.0.xsd">
<omm id="CCSDS_OMM_VERS" version="2.0">
<header><CREATION_DATE/><ORIGINATOR/></header><body><segment><metadata><OBJECT_NAME>KUIPER-00008</OBJECT_NAME><OBJECT_ID>2025-088A</OBJECT_ID><CENTER_NAME>EARTH</CENTER_NAME><REF_FRAME>TEME</REF_FRAME><TIME_SYSTEM>UTC</TIME_SYSTEM><MEAN_ELEMENT_THEORY>SGP4</MEAN_ELEMENT_THEORY></metadata><data><meanElements><EPOCH>2025-07-23T06:00:02.000160</EPOCH><MEAN_MOTION>15.05177610</MEAN_MOTION><ECCENTRICITY>.0011734</ECCENTRICITY><INCLINATION>51.8869</INCLINATION><RA_OF_ASC_NODE>53.0960</RA_OF_ASC_NODE><ARG_OF_PERICENTER>52.9954</ARG_OF_PERICENTER><MEAN_ANOMALY>117.2546</MEAN_ANOMALY></meanElements><tleParameters><EPHEMERIS_TYPE>0</EPHEMERIS_TYPE><CLASSIFICATION_TYPE>U</CLASSIFICATION_TYPE><NORAD_CAT_ID>63724</NORAD_CAT_ID><ELEMENT_SET_NO>999</ELEMENT_SET_NO><REV_AT_EPOCH>1363</REV_AT_EPOCH><BSTAR>-.39869E-2</BSTAR><MEAN_MOTION_DOT>-.57416E-3</MEAN_MOTION_DOT><MEAN_MOTION_DDOT>0</MEAN_MOTION_DDOT></tleParameters></data></segment></body></omm>
<omm id="CCSDS_OMM_VERS" version="2.0">
<header><CREATION_DATE/><ORIGINATOR/></header><body><segment><metadata><OBJECT_NAME>KUIPER-00009</OBJECT_NAME><OBJECT_ID>2025-088B</OBJECT_ID><CENTER_NAME>EARTH</CENTER_NAME><REF_FRAME>TEME</REF_FRAME><TIME_SYSTEM>UTC</TIME_SYSTEM><MEAN_ELEMENT_THEORY>SGP4</MEAN_ELEMENT_THEORY></metadata><data><meanElements><EPOCH>2025-07-23T06:00:02.000160</EPOCH><MEAN_MOTION>15.20889478</MEAN_MOTION><ECCENTRICITY>.0012376</ECCENTRICITY><INCLINATION>51.8776</INCLINATION><RA_OF_ASC_NODE>47.5729</RA_OF_ASC_NODE><ARG_OF_PERICENTER>78.4295</ARG_OF_PERICENTER><MEAN_ANOMALY>310.6097</MEAN_ANOMALY></meanElements><tleParameters><EPHEMERIS_TYPE>0</EPHEMERIS_TYPE><CLASSIFICATION_TYPE>U</CLASSIFICATION_TYPE><NORAD_CAT_ID>63725</NORAD_CAT_ID><ELEMENT_SET_NO>999</ELEMENT_SET_NO><REV_AT_EPOCH>1371</REV_AT_EPOCH><BSTAR>-.23915E-1</BSTAR><MEAN_MOTION_DOT>-.502416E-2</MEAN_MOTION_DOT><MEAN_MOTION_DDOT>0</MEAN_MOTION_DDOT></tleParameters></data></segment></body></omm>
<omm id="CCSDS_OMM_VERS" version="2.0">
<header><CREATION_DATE/><ORIGINATOR/></header><body><segment><metadata><OBJECT_NAME>KUIPER-00010</OBJECT_NAME><OBJECT_ID>2025-088C</OBJECT_ID><CENTER_NAME>EARTH</CENTER_NAME><REF_FRAME>TEME</REF_FRAME><TIME_SYSTEM>UTC</TIME_SYSTEM><MEAN_ELEMENT_THEORY>SGP4</MEAN_ELEMENT_THEORY></metadata><data><meanElements><EPOCH>2025-07-22T20:18:57.591360</EPOCH><MEAN_MOTION>15.35889015</MEAN_MOTION><ECCENTRICITY>.0009845</ECCENTRICITY><INCLINATION>51.8645</INCLINATION><RA_OF_ASC_NODE>48.7316</RA_OF_ASC_NODE><ARG_OF_PERICENTER>62.5392</ARG_OF_PERICENTER><MEAN_ANOMALY>297.6593</MEAN_ANOMALY></meanElements><tleParameters><EPHEMERIS_TYPE>0</EPHEMERIS_TYPE><CLASSIFICATION_TYPE>U</CLASSIFICATION_TYPE><NORAD_CAT_ID>63726</NORAD_CAT_ID><ELEMENT_SET_NO>999</ELEMENT_SET_NO><REV_AT_EPOCH>1328</REV_AT_EPOCH><BSTAR>.38277E-3</BSTAR><MEAN_MOTION_DOT>.1323E-3</MEAN_MOTION_DOT><MEAN_MOTION_DDOT>0</MEAN_MOTION_DDOT></tleParameters></data></segment></body></omm>
<omm id="CCSDS_OMM_VERS" version="2.0">
<header><CREATION_DATE/><ORIGINATOR/></header><body><segment><metadata><OBJECT_NAME>KUIPER-00011</OBJECT_NAME><OBJECT_ID>2025-088D</OBJECT_ID><CENTER_NAME>EARTH</CENTER_NAME><REF_FRAME>TEME</REF_FRAME><TIME_SYSTEM>UTC</TIME_SYSTEM><MEAN_ELEMENT_THEORY>SGP4</MEAN_ELEMENT_THEORY></metadata><data><meanElements><EPOCH>2025-07-22T20:55:45.413760</EPOCH><MEAN_MOTION>15.35437933</MEAN_MOTION><ECCENTRICITY>.0011532</ECCENTRICITY><INCLINATION>51.8580</INCLINATION><RA_OF_ASC_NODE>48.8425</RA_OF_ASC_NODE><ARG_OF_PERICENTER>69.6105</ARG_OF_PERICENTER><MEAN_ANOMALY>290.6118</MEAN_ANOMALY></meanElements><tleParameters><EPHEMERIS_TYPE>0</EPHEMERIS_TYPE><CLASSIFICATION_TYPE>U</CLASSIFICATION_TYPE><NORAD_CAT_ID>63727</NORAD_CAT_ID><ELEMENT_SET_NO>999</ELEMENT_SET_NO><REV_AT_EPOCH>1342</REV_AT_EPOCH><BSTAR>-.6612E-4</BSTAR><MEAN_MOTION_DOT>-.2706E-4</MEAN_MOTION_DOT><MEAN_MOTION_DDOT>0</MEAN_MOTION_DDOT></tleParameters></data></segment></body></omm>
<omm id="CCSDS_OMM_VERS" version="2.0">
<header><CREATION_DATE/><ORIGINATOR/></header><body><segment><metadata><OBJECT_NAME>KUIPER-00012</OBJECT_NAME><OBJECT_ID>2025-088E</OBJECT_ID><CENTER_NAME>EARTH</CENTER_NAME><REF_FRAME>TEME</REF_FRAME><TIME_SYSTEM>UTC</TIME_SYSTEM><MEAN_ELEMENT_THEORY>SGP4</MEAN_ELEMENT_THEORY></metadata><data><meanElements><EPOCH>2025-07-23T00:01:06.279168</EPOCH><MEAN_MOTION>15.35525765</MEAN_MOTION><ECCENTRICITY>.0011659</ECCENTRICITY><INCLINATION>51.8569</INCLINATION><RA_OF_ASC_NODE>48.1942</RA_OF_ASC_NODE><ARG_OF_PERICENTER>71.3298</ARG_OF_PERICENTER><MEAN_ANOMALY>288.8952</MEAN_ANOMALY></meanElements><tleParameters><EPHEMERIS_TYPE>0</EPHEMERIS_TYPE><CLASSIFICATION_TYPE>U</CLASSIFICATION_TYPE><NORAD_CAT_ID>63728</NORAD_CAT_ID><ELEMENT_SET_NO>999</ELEMENT_SET_NO><REV_AT_EPOCH>1339</REV_AT_EPOCH><BSTAR>.35694E-3</BSTAR><MEAN_MOTION_DOT>.1217E-3</MEAN_MOTION_DOT><MEAN_MOTION_DDOT>0</MEAN_MOTION_DDOT></tleParameters></data></segment></body></omm>
<omm id="CCSDS_OMM_VERS" version="2.0">
<header><CREATION_DATE/><ORIGINATOR/></header><body><segment><metadata><OBJECT_NAME>KUIPER-00013</OBJECT_NAME><OBJECT_ID>2025-088F</OBJECT_ID><CENTER_NAME>EARTH</CENTER_NAME><REF_FRAME>TEME</REF_FRAME><TIME_SYSTEM>UTC</TIME_SYSTEM><MEAN_ELEMENT_THEORY>SGP4</MEAN_ELEMENT_THEORY></metadata><data><meanElements><EPOCH>2025-07-23T06:00:02.000160</EPOCH><MEAN_MOTION>15.19091684</MEAN_MOTION><ECCENTRICITY>.0007835</ECCENTRICITY><INCLINATION>51.8786</INCLINATION><RA_OF_ASC_NODE>48.1331</RA_OF_ASC_NODE><ARG_OF_PERICENTER>49.3711</ARG_OF_PERICENTER><MEAN_ANOMALY>63.7232</MEAN_ANOMALY></meanElements><tleParameters><EPHEMERIS_TYPE>0</EPHEMERIS_TYPE><CLASSIFICATION_TYPE>U</CLASSIFICATION_TYPE><NORAD_CAT_ID>63729</NORAD_CAT_ID><ELEMENT_SET_NO>999</ELEMENT_SET_NO><REV_AT_EPOCH>1351</REV_AT_EPOCH><BSTAR>-.2119E-1</BSTAR><MEAN_MOTION_DOT>-.42598E-2</MEAN_MOTION_DOT><MEAN_MOTION_DDOT>0</MEAN_MOTION_DDOT></tleParameters></data></segment></body></omm>
<omm id="CCSDS_OMM_VERS" version="2.0">
<header><CREATION_DATE/><ORIGINATOR/></header><body><segment><metadata><OBJECT_NAME>KUIPER-00014</OBJECT_NAME><OBJECT_ID>2025-088G</OBJECT_ID><CENTER_NAME>EARTH</CENTER_NAME><REF_FRAME>TEME</REF_FRAME><TIME_SYSTEM>UTC</TIME_SYSTEM><MEAN_ELEMENT_THEORY>SGP4</MEAN_ELEMENT_THEORY></metadata><data><meanElements><EPOCH>2025-07-23T06:00:02.000160</EPOCH><MEAN_MOTION>15.18156662</MEAN_MOTION><ECCENTRICITY>.0009913</ECCENTRICITY><INCLINATION>51.8756</INCLINATION><RA_OF_ASC_NODE>49.0330</RA_OF_ASC_NODE><ARG_OF_PERICENTER>66.7247</ARG_OF_PERICENTER><MEAN_ANOMALY>356.9480</MEAN_ANOMALY></meanElements><tleParameters><EPHEMERIS_TYPE>0</EPHEMERIS_TYPE><CLASSIFICATION_TYPE>U</CLASSIFICATION_TYPE><NORAD_CAT_ID>63730</NORAD_CAT_ID><ELEMENT_SET_NO>999</ELEMENT_SET_NO><REV_AT_EPOCH>1331</REV_AT_EPOCH><BSTAR>-.33512E-1</BSTAR><MEAN_MOTION_DOT>-.64527E-2</MEAN_MOTION_DOT><MEAN_MOTION_DDOT>0</MEAN_MOTION_DDOT></tleParameters></data></segment></body></omm>
<omm id="CCSDS_OMM_VERS" version="2.0">
<header><CREATION_DATE/><ORIGINATOR/></header><body><segment><metadata><OBJECT_NAME>KUIPER-00015</OBJECT_NAME><OBJECT_ID>2025-088H</OBJECT_ID><CENTER_NAME>EARTH</CENTER_NAME><REF_FRAME>TEME</REF_FRAME><TIME_SYSTEM>UTC</TIME_SYSTEM><MEAN_ELEMENT_THEORY>SGP4</MEAN_ELEMENT_THEORY></metadata><data><meanElements><EPOCH>2025-07-23T04:00:00.999936</EPOCH><MEAN_MOTION>14.95632724</MEAN_MOTION><ECCENTRICITY>.0011044</ECCENTRICITY><INCLINATION>51.8887</INCLINATION><RA_OF_ASC_NODE>57.1127</RA_OF_ASC_NODE><ARG_OF_PERICENTER>51.2617</ARG_OF_PERICENTER><MEAN_ANOMALY>38.7274</MEAN_ANOMALY></meanElements><tleParameters><EPHEMERIS_TYPE>0</EPHEMERIS_TYPE><CLASSIFICATION_TYPE>U</CLASSIFICATION_TYPE><NORAD_CAT_ID>63731</NORAD_CAT_ID><ELEMENT_SET_NO>999</ELEMENT_SET_NO><REV_AT_EPOCH>1365</REV_AT_EPOCH><BSTAR>-.6484E-3</BSTAR><MEAN_MOTION_DOT>-.7541E-4</MEAN_MOTION_DOT><MEAN_MOTION_DDOT>0</MEAN_MOTION_DDOT></tleParameters></data></segment></body></omm>

</ndm>
